INTELSAT 21 (IS-21)     
1 38749U 12045A   26164.89298209 -.00000275  00000+0  00000+0 0  9992
2 38749   0.0152 317.2891 0001260 141.4696  66.9202  1.00271293 50490
ASTRA 2F                
1 38778U 12051A   26164.91548067  .00000160  00000+0  00000+0 0  9996
2 38778   0.0710 259.1531 0001342 281.8688  78.9767  1.00268179 41104
GSAT-10                 
1 38779U 12051B   26164.92094564 -.00000155  00000+0  00000+0 0  9991
2 38779   0.0891 263.4526 0007768 183.6175 229.7183  1.00270205 50061
INTELSAT 23 (IS-23)     
1 38867U 12057A   26164.89402209 -.00000275  00000+0  00000+0 0  9993
2 38867   0.0138 344.5671 0000360  86.8250  99.6486  1.00274975 49925
BEIDOU-2 G6             
1 38953U 12059A   26164.96167564 -.00000170  00000+0  00000+0 0  9995
2 38953   4.4119  73.5571 0009636 324.3484 294.5967  1.00272624 49873
LUCH-5B                 
1 38977U 12061A   26163.97444869 -.00000133  00000+0  00000+0 0  9999
2 38977  10.4721  49.9205 0002346 149.8007  36.0976  1.00272671 49565
YAMAL 300K              
1 38978U 12061B   26164.65554332  .00000082  00000+0  00000+0 0  9995
2 38978   0.0114 272.6642 0001348 318.3169  89.9517  1.00271234 49595
STAR ONE C3             
1 38991U 12062A   26164.74710860 -.00000239  00000+0  00000+0 0  9996
2 38991   0.0260  64.3356 0002134  31.2476   0.4491  1.00271709 49738
EUTELSAT 21B            
1 38992U 12062B   26164.91129998  .00000140  00000+0  00000+0 0  9992
2 38992   0.0660   5.1696 0003090  76.4024 170.3013  1.00273550 49794
ECHOSTAR 16             
1 39008U 12065A   26164.53590012  .00000000  00000+0  00000+0 0  9996
2 39008   0.0260  10.6537 0001996  73.6614 308.9578  1.00271025 49601
ZHONGXING-12            
1 39017U 12067A   26164.96541567 -.00000197  00000+0  00000+0 0  9994
2 39017   0.0269  75.4243 0002840   2.2270 259.6575  1.00272813 49478
EUTELSAT 70B            
1 39020U 12069A   26164.95105766 -.00000034  00000+0  00000+0 0  9996
2 39020   0.0627   8.7595 0003961  66.8515 239.5123  1.00271355 49478
YAMAL 402               
1 39022U 12070A   26164.99557056  .00000095  00000+0  00000+0 0  9993
2 39022   1.2568  84.1979 0003623 358.4391 232.9715  1.00270156 49368
SKYNET 5D               
1 39034U 12075A   26164.93588461  .00000109  00000+0  00000+0 0  9995
2 39034   0.0681 342.7216 0003435 109.1106 200.1193  1.00268960 49128
MEXSAT 3                
1 39035U 12075B   26164.88180205 -.00000015  00000+0  00000+0 0  9991
2 39035   0.0164  23.8714 0001168  47.2109  33.7764  1.00268327  7025
TDRS 11                 
1 39070U 13004A   26164.98708317  .00000085  00000+0  00000+0 0  9990
2 39070   3.5162  31.2110 0005555  18.9920  33.0542  1.00268356 46665
AMAZONAS 3              
1 39078U 13006A   26164.89246209 -.00000272  00000+0  00000+0 0  9996
2 39078   0.0387 230.6823 0001772 258.1339  33.6546  1.00273524 44884
AZERSPACE 1             
1 39079U 13006B   26164.89419005  .00000143  00000+0  00000+0 0  9999
2 39079   0.0169 339.6357 0001138 131.2903 159.1897  1.00268697 48779
SBIRS GEO-2 (USA 241)   
1 39120U 13011A   26164.68076344 -.00000279  00000+0  00000+0 0  9995
2 39120   4.4824  52.5089 0002229  21.5553  23.1964  1.00271315 48506
EUTELSAT 117 WEST A     
1 39122U 13012A   26164.88128205 -.00000003  00000+0  00000+0 0  9999
2 39122   0.0122 345.8111 0002637  96.2865  20.5505  1.00270626 48408
ANIK G1                 
1 39127U 13014A   26164.88327538  .00000000  00000+0  00000+0 0  9992
2 39127   0.0261   4.0194 0001444  72.5005  36.3352  1.00270052 48228
ZHONGXING-11            
1 39157U 13020A   26164.97245068 -.00000281  00000+0  00000+0 0  9991
2 39157   0.0485  61.6318 0002063  15.3726 273.2781  1.00270548 47866
EUTELSAT 7B             
1 39163U 13022A   26164.90589367  .00000058  00000+0  00000+0 0  9997
2 39163   0.0745  22.1827 0004640  13.7108 199.4410  1.00272195 47912
WGS F5 (USA 243)        
1 39168U 13024A   26164.46637977 -.00000273  00000+0  00000+0 0  9996
2 39168   0.0011  15.4824 0000180 280.4763  81.2165  1.00272719 47131
SES-6                   
1 39172U 13026A   26164.89646036 -.00000251  00000+0  00000+0 0  9992
2 39172   0.0175 353.1167 0002466 105.7133  85.6000  1.00270342 47695
IRNSS-1A                
1 39199U 13034A   26160.59779131  .00000070  00000+0  00000+0 0  9994
2 39199  35.7049  63.9797 0017411 184.2474 279.8453  1.00272948 47299
MUOS-2                  
1 39206U 13036A   26164.86732865 -.00000007  00000+0  00000+0 0  9993
2 39206   4.9889  45.5289 0050859 177.6281 163.2008  1.00272620 47159
ALPHASAT                
1 39215U 13038A   26164.91294176  .00000141  00000+0  00000+0 0  9997
2 39215   2.9984   1.4097 0001635  90.7589 163.5484  1.00272528 43980
INSAT-3D                
1 39216U 13038B   26164.93013235 -.00000331  00000+0  00000+0 0  9997
2 39216   1.9175  82.5789 0000558 308.0873 335.9433  1.00270661 47040
WGS F6 (USA 244)        
1 39222U 13041A   26164.73514854  .00000100  00000+0  00000+0 0  9992
2 39222   0.0186  11.2437 0000225 272.1435 108.1271  1.00270989 46024
ES'HAIL 1               
1 39233U 13044A   26164.91324390  .00000153  00000+0  00000+0 0  9999
2 39233   0.0534  19.1732 0002061  60.7268 176.5680  1.00272934 46590
GSAT-7                  
1 39234U 13044B   26164.92115130 -.00000067  00000+0  00000+0 0  9996
2 39234   0.0757  96.0298 0003171 189.0780  22.7113  1.00270255 45222
