OBJECT_NAME,OBJECT_ID,EPOCH,MEAN_MOTION,ECCENTRICITY,INCLINATION,RA_OF_ASC_NODE,ARG_OF_PERICENTER,MEAN_ANOMALY,EPHEMERIS_TYPE,CLASSIFICATION_TYPE,NORAD_CAT_ID,ELEMENT_SET_NO,REV_AT_EPOCH,BSTAR,MEAN_MOTION_DOT,MEAN_MOTION_DDOT
INTELSAT 21 (IS-21),2012-045A,2026-06-13T21:25:53.652576,1.00271293,.00012602,0.0152,317.2891,141.4696,66.9202,0,U,38749,999,5049,0,-.275E-5,0
ASTRA 2F,2012-051A,2026-06-13T21:58:17.529888,1.00268179,.00013422,0.0710,259.1531,281.8688,78.9767,0,U,38778,999,4110,0,.16E-5,0
GSAT-10,2012-051B,2026-06-13T22:06:09.703296,1.00270205,.00077682,0.0891,263.4526,183.6175,229.7183,0,U,38779,999,5006,0,-.155E-5,0
INTELSAT 23 (IS-23),2012-057A,2026-06-13T21:27:23.508576,1.00274975,.00003603,0.0138,344.5671,86.8250,99.6486,0,U,38867,999,4992,0,-.275E-5,0
BEIDOU-2 G6,2012-059A,2026-06-13T23:04:48.775296,1.00272624,.00096361,4.4119,73.5571,324.3484,294.5967,0,U,38953,999,4987,0,-.17E-5,0
LUCH-5B,2012-061A,2026-06-12T23:23:12.366816,1.00272671,.00023465,10.4721,49.9205,149.8007,36.0976,0,U,38977,999,4956,0,-.133E-5,0
YAMAL 300K,2012-061B,2026-06-13T15:43:58.942848,1.00271234,.00013484,0.0114,272.6642,318.3169,89.9517,0,U,38978,999,4959,0,.82E-6,0
STAR ONE C3,2012-062A,2026-06-13T17:55:50.183040,1.00271709,.00021344,0.0260,64.3356,31.2476,0.4491,0,U,38991,999,4973,0,-.239E-5,0
EUTELSAT 21B,2012-062B,2026-06-13T21:52:16.318272,1.00273550,.00030904,0.0660,5.1696,76.4024,170.3013,0,U,38992,999,4979,0,.14E-5,0
ECHOSTAR 16,2012-065A,2026-06-13T12:51:41.770368,1.00271025,.00019962,0.0260,10.6537,73.6614,308.9578,0,U,39008,999,4960,0,0,0
ZHONGXING-12,2012-067A,2026-06-13T23:10:11.913888,1.00272813,.00028404,0.0269,75.4243,2.2270,259.6575,0,U,39017,999,4947,0,-.197E-5,0
EUTELSAT 70B,2012-069A,2026-06-13T22:49:31.381824,1.00271355,.00039612,0.0627,8.7595,66.8515,239.5123,0,U,39020,999,4947,0,-.34E-6,0
YAMAL 402,2012-070A,2026-06-13T23:53:37.296384,1.00270156,.00036234,1.2568,84.1979,358.4391,232.9715,0,U,39022,999,4936,0,.95E-6,0
SKYNET 5D,2012-075A,2026-06-13T22:27:40.430304,1.00268960,.00034358,0.0681,342.7216,109.1106,200.1193,0,U,39034,999,4912,0,.109E-5,0
MEXSAT 3,2012-075B,2026-06-13T21:09:47.697120,1.00268327,.00011682,0.0164,23.8714,47.2109,33.7764,0,U,39035,999,702,0,-.15E-6,0
TDRS 11,2013-004A,2026-06-13T23:41:23.985888,1.00268356,.00055552,3.5162,31.2110,18.9920,33.0542,0,U,39070,999,4666,0,.85E-6,0
AMAZONAS 3,2013-006A,2026-06-13T21:25:08.724576,1.00273524,.00017723,0.0387,230.6823,258.1339,33.6546,0,U,39078,999,4488,0,-.272E-5,0
AZERSPACE 1,2013-006B,2026-06-13T21:27:38.020320,1.00268697,.0001138,0.0169,339.6357,131.2903,159.1897,0,U,39079,999,4877,0,.143E-5,0
SBIRS GEO-2 (USA 241),2013-011A,2026-06-13T16:20:17.961216,1.00271315,.00022295,4.4824,52.5089,21.5553,23.1964,0,U,39120,999,4850,0,-.279E-5,0
EUTELSAT 117 WEST A,2013-012A,2026-06-13T21:09:02.769120,1.00270626,.00026377,0.0122,345.8111,96.2865,20.5505,0,U,39122,999,4840,0,-.3E-7,0
ANIK G1,2013-014A,2026-06-13T21:11:54.992832,1.00270052,.00014445,0.0261,4.0194,72.5005,36.3352,0,U,39127,999,4822,0,0,0
ZHONGXING-11,2013-020A,2026-06-13T23:20:19.738752,1.00270548,.00020638,0.0485,61.6318,15.3726,273.2781,0,U,39157,999,4786,0,-.281E-5,0
EUTELSAT 7B,2013-022A,2026-06-13T21:44:29.213088,1.00272195,.00046402,0.0745,22.1827,13.7108,199.4410,0,U,39163,999,4791,0,.58E-6,0
WGS F5 (USA 243),2013-024A,2026-06-13T11:11:35.212128,1.00272719,.00001805,0.0011,15.4824,280.4763,81.2165,0,U,39168,999,4713,0,-.273E-5,0
SES-6,2013-026A,2026-06-13T21:30:54.175104,1.00270342,.00024667,0.0175,353.1167,105.7133,85.6000,0,U,39172,999,4769,0,-.251E-5,0
IRNSS-1A,2013-034A,2026-06-09T14:20:49.169184,1.00272948,.00174117,35.7049,63.9797,184.2474,279.8453,0,U,39199,999,4729,0,.7E-6,0
MUOS-2,2013-036A,2026-06-13T20:48:57.195360,1.00272620,.00508591,4.9889,45.5289,177.6281,163.2008,0,U,39206,999,4715,0,-.7E-7,0
ALPHASAT,2013-038A,2026-06-13T21:54:38.168064,1.00272528,.00016351,2.9984,1.4097,90.7589,163.5484,0,U,39215,999,4398,0,.141E-5,0
INSAT-3D,2013-038B,2026-06-13T22:19:23.435040,1.00270661,.00005581,1.9175,82.5789,308.0873,335.9433,0,U,39216,999,4704,0,-.331E-5,0
WGS F6 (USA 244),2013-041A,2026-06-13T17:38:36.833856,1.00270989,.00002254,0.0186,11.2437,272.1435,108.1271,0,U,39222,999,4602,0,.1E-5,0
ES'HAIL 1,2013-044A,2026-06-13T21:55:04.272960,1.00272934,.00020615,0.0534,19.1732,60.7268,176.5680,0,U,39233,999,4659,0,.153E-5,0
GSAT-7,2013-044B,2026-06-13T22:06:27.472320,1.00270255,.0003171,0.0757,96.0298,189.0780,22.7113,0,U,39234,999,4522,0,-.67E-6,0
